H1 CPF  1  HTS 2022  9 27 12  7701 larets           NONE
H2  0304206 5557    27944 2022 09 27  0  0  0 2022 10 02  0  0  0   180 1 1  0 0 0
H5  0.0560 
H9 
10 0 59850  10440.00000  0   -5853060.758    1635508.189   -3613101.270
10 0 59850  10620.00000  0   -5012288.730    1704702.472   -4684686.873
10 0 59850  10800.00000  0   -3989297.876    1687691.350   -5585363.914
10 0 59850  10980.00000  0   -2823554.742    1580871.019   -6282422.147
10 0 59850  11160.00000  0   -1559651.454    1384976.789   -6750570.906
10 0 59850  11340.00000  0    -245587.708    1105159.442   -6972805.555
10 0 59850  11520.00000  0    1069036.822     750865.719   -6940982.599
10 0 59850  11700.00000  0    2334865.062     335528.256   -6656110.316
10 0 59850  11880.00000  0    3504616.484    -123930.963   -6128338.719
10 0 59850  12060.00000  0    4534848.417    -607768.320   -5376641.407
10 0 59850  12240.00000  0    5387589.202   -1094238.581   -4428196.356
10 0 59850  12420.00000  0    6031792.500   -1560541.064   -3317467.005
10 0 59850  12600.00000  0    6444543.650   -1983854.706   -2084991.942
10 0 59850  12780.00000  0    6611956.109   -2342416.358    -775915.984
10 0 59850  12960.00000  0    6529704.096   -2616586.906     561687.194
10 0 59850  13140.00000  0    6203156.231   -2789848.134    1878632.475
10 0 59850  13320.00000  0    5647093.987   -2849674.270    3126500.155
10 0 59850  13500.00000  0    4885025.825   -2788229.705    4259478.561
10 0 59850  13680.00000  0    3948141.813   -2602853.649    5236082.069
10 0 59850  13860.00000  0    2873974.943   -2296315.401    6020677.640
10 0 59850  14040.00000  0    1704833.226   -1876827.720    6584761.070
10 0 59850  14220.00000  0     486089.142   -1357823.515    6907943.900
10 0 59850  14400.00000  0    -735602.114    -757510.020    6978635.389
10 0 59850  14580.00000  0   -1914085.850     -98217.920    6794411.314
10 0 59850  14760.00000  0   -3005435.192     594430.937    6362074.333
10 0 59850  14940.00000  0   -3969574.304    1292511.954    5697409.276
10 0 59850  15120.00000  0   -4771751.452    1966910.212    4824636.328
10 0 59850  15300.00000  0   -5383813.098    2588521.427    3775566.441
10 0 59850  15480.00000  0   -5785225.053    3129496.025    2588474.104
10 0 59850  15660.00000  0   -5963797.947    3564472.118    1306721.749
10 0 59850  15840.00000  0   -5916083.723    3871742.792     -22826.452
10 0 59850  16020.00000  0   -5647411.606    4034293.324   -1351543.020
10 0 59850  16200.00000  0   -5171563.168    4040655.534   -2630851.689
10 0 59850  16380.00000  0   -4510095.485    3885532.171   -3814042.242
10 0 59850  16560.00000  0   -3691349.965    3570156.996   -4857994.935
10 0 59850  16740.00000  0   -2749209.394    3102379.813   -5724741.573
10 0 59850  16920.00000  0   -1721673.593    2496480.073   -6382811.096
10 0 59850  17100.00000  0    -649315.571    1772720.225   -6808326.566
10 0 59850  17280.00000  0     426315.957     956658.593   -6985820.431
10 0 59850  17460.00000  0    1464285.106      78252.127   -6908762.790
10 0 59850  17640.00000  0    2425806.887    -829226.733   -6579797.250
10 0 59850  17820.00000  0    3275683.811   -1730429.354   -6010671.875
10 0 59850  18000.00000  0    3983598.517   -2589287.053   -5221870.021
10 0 59850  18180.00000  0    4525225.486   -3370449.804   -4241939.758
10 0 59850  18360.00000  0    4883112.099   -4040754.245   -3106517.210
10 0 59850  18540.00000  0    5047291.568   -4570654.156   -1857069.985
10 0 59850  18720.00000  0    5015595.616   -4935549.571    -539388.691
10 0 59850  18900.00000  0    4793637.341   -5116943.649     798121.871
10 0 59850  19080.00000  0    4394456.378   -5103357.169    2106279.260
10 0 59850  19260.00000  0    3837842.507   -4890945.361    3337000.063
10 0 59850  19440.00000  0    3149376.087   -4483786.889    4445123.657
10 0 59850  19620.00000  0    2359240.191   -3893831.242    5390102.379
10 0 59850  19800.00000  0    1500872.248   -3140512.914    6137485.809
10 0 59850  19980.00000  0     609524.123   -2250058.991    6660147.422
10 0 59850  20160.00000  0    -279199.942   -1254529.866    6939216.417
10 0 59850  20340.00000  0   -1130763.249    -190637.908    6964704.272
10 0 59850  20520.00000  0   -1913026.455     901615.787    6735822.667
10 0 59850  20700.00000  0   -2597447.510    1980439.897    6260989.500
10 0 59850  20880.00000  0   -3160114.825    3003839.398    5557527.834
10 0 59850  21060.00000  0   -3582584.167    3931242.975    4651065.550
10 0 59850  21240.00000  0   -3852493.888    4725117.162    3574641.748
10 0 59850  21420.00000  0   -3963931.322    5352506.102    2367535.789
10 0 59850  21600.00000  0   -3917530.994    5786426.106    1073847.568
10 0 59850  21780.00000  0   -3720298.340    6007045.273    -259118.527
10 0 59850  21960.00000  0   -3385168.024    6002593.529   -1582609.071
10 0 59850  22140.00000  0   -2930309.255    5769942.564   -2848248.465
10 0 59850  22320.00000  0   -2378211.496    5314821.606   -4009841.188
10 0 59850  22500.00000  0   -1754611.314    4651669.043   -5025068.570
10 0 59850  22680.00000  0   -1087316.776    3803133.682   -5857014.224
10 0 59850  22860.00000  0    -404987.648    2799261.816   -6475471.378
10 0 59850  23040.00000  0     264078.465    1676400.961   -6857994.416
10 0 59850  23220.00000  0     893099.362     475872.981   -6990665.372
10 0 59850  23400.00000  0    1457861.927    -757535.505   -6868571.689
10 0 59850  23580.00000  0    1937642.622   -1977221.637   -6495983.393
10 0 59850  23760.00000  0    2315965.176   -3136500.025   -5886230.431
10 0 59850  23940.00000  0    2581177.285   -4190379.020   -5061284.528
10 0 59850  24120.00000  0    2726824.391   -5097327.451   -4051030.186
10 0 59850  24300.00000  0    2751800.253   -5820950.650   -2892236.591
10 0 59850  24480.00000  0    2660267.185   -6331515.517   -1627255.973
10 0 59850  24660.00000  0    2461344.992   -6607245.135    -302475.423
10 0 59850  24840.00000  0    2168574.643   -6635303.555    1033423.189
10 0 59850  25020.00000  0    1799182.160   -6412409.098    2331312.622
10 0 59850  25200.00000  0    1373182.256   -5945040.519    3543496.997
10 0 59850  25380.00000  0     912369.432   -5249221.634    4625517.892
10 0 59850  25560.00000  0     439255.010   -4349910.422    5537809.352
10 0 59850  25740.00000  0     -23995.475   -3280028.275    6247140.907
10 0 59850  25920.00000  0    -456568.923   -2079178.326    6727792.030
10 0 59850  26100.00000  0    -839911.448    -792129.616    6962427.550
10 0 59850  26280.00000  0   -1158501.309     532872.154    6942672.998
10 0 59850  26460.00000  0   -1400463.009    1845915.768    6669379.025
10 0 59850  26640.00000  0   -1558001.632    3097293.669    6152572.403
10 0 59850  26820.00000  0   -1627646.895    4239371.906    5411100.521
10 0 59850  27000.00000  0   -1610300.277    5228403.922    4471976.811
10 0 59850  27180.00000  0   -1511084.941    6026228.690    3369435.887
10 0 59850  27360.00000  0   -1339004.403    6601781.969    2143716.182
10 0 59850  27540.00000  0   -1106424.748    6932356.038     839603.459
10 0 59850  27720.00000  0    -828395.307    7004539.904    -495216.818
10 0 59850  27900.00000  0    -521845.603    6814791.424   -1811932.066
10 0 59850  28080.00000  0    -204699.298    6369598.458   -3062430.472
10 0 59850  28260.00000  0     105043.463    5685221.345   -4201085.268
10 0 59850  28440.00000  0     390210.837    4787049.625   -5186425.039
10 0 59850  28620.00000  0     635309.227    3708604.756   -5982629.096
10 0 59850  28800.00000  0     827276.372    2490239.683   -6560794.115
10 0 59850  28980.00000  0     956103.130    1177598.026   -6899934.006
10 0 59850  29160.00000  0    1015301.555    -180098.074   -6987695.648
10 0 59850  29340.00000  0    1002202.755   -1531876.830   -6820783.298
10 0 59850  29520.00000  0     918073.943   -2826902.539   -6405080.896
10 0 59850  29700.00000  0     768053.664   -4016362.952   -5755481.436
10 0 59850  29880.00000  0     560902.281   -5055315.611   -4895413.235
10 0 59850  30060.00000  0     308576.668   -5904420.298   -3856058.180
10 0 59850  30240.00000  0      25640.934   -6531494.279   -2675275.553
10 0 59850  30420.00000  0    -271463.702   -6912816.194   -1396250.548
10 0 59850  30600.00000  0    -565257.238   -7034110.073     -65906.460
10 0 59850  30780.00000  0    -838126.302   -6891143.276    1266859.371
10 0 59850  30960.00000  0   -1073249.079   -6489902.723    2553034.087
10 0 59850  31140.00000  0   -1255488.778   -5846334.646    3745360.232
10 0 59850  31320.00000  0   -1372203.419   -4985657.620    4800125.362
10 0 59850  31500.00000  0   -1413931.968   -3941298.280    5678782.945
10 0 59850  31680.00000  0   -1374924.966   -2753516.138    6349351.114
10 0 59850  31860.00000  0   -1253493.480   -1467782.110    6787536.278
10 0 59850  32040.00000  0   -1052165.495    -133000.260    6977556.640
10 0 59850  32220.00000  0    -777651.828    1200364.457    6912661.023
10 0 59850  32400.00000  0    -440617.771    2482187.440    6595336.832
10 0 59850  32580.00000  0     -55266.642    3664555.440    6037207.094
10 0 59850  32760.00000  0     361246.363    4703548.839    5258620.894
10 0 59850  32940.00000  0     789551.167    5560881.363    4287945.679
10 0 59850  33120.00000  0    1208924.693    6205339.008    3160571.155
10 0 59850  33300.00000  0    1598244.521    6613964.374    1917653.926
10 0 59850  33480.00000  0    1936995.209    6772930.478     604616.723
10 0 59850  33660.00000  0    2206270.505    6678039.927    -730531.078
10 0 59850  33840.00000  0    2389723.006    6334831.497   -2038977.875
10 0 59850  34020.00000  0    2474412.955    5758291.811   -3272925.677
10 0 59850  34200.00000  0    2451513.750    4972184.054   -4387363.109
10 0 59850  34380.00000  0    2316835.724    4008025.170   -5341715.324
10 0 59850  34560.00000  0    2071143.939    2903774.902   -6101300.389
10 0 59850  34740.00000  0    1720261.046    1702306.374   -6638549.427
99
